OBJECT_NAME,OBJECT_ID,EPOCH,MEAN_MOTION,ECCENTRICITY,INCLINATION,RA_OF_ASC_NODE,ARG_OF_PERICENTER,MEAN_ANOMALY,EPHEMERIS_TYPE,CLASSIFICATION_TYPE,NORAD_CAT_ID,ELEMENT_SET_NO,REV_AT_EPOCH,BSTAR,MEAN_MOTION_DOT,MEAN_MOTION_DDOT
FENGYUN 3D,2017-072A,2026-07-17T22:40:28.723296,14.19743526,.00014031,99.0148,173.9262,8.5080,351.6119,0,U,43010,999,44935,-.15842951E-3,-.382E-5,0
NOAA 20 (JPSS-1),2017-073A,2026-07-17T20:59:00.507552,14.19516763,.00014896,98.7772,138.0652,121.5711,238.5610,0,U,43013,999,44882,.32040738E-4,.23E-6,0
GOES 17,2018-022A,2026-07-17T19:41:28.413600,1.00270854,.00005965,1.0139,85.2201,70.6215,345.6576,0,U,43226,999,3073,0,-.192E-5,0
SENTINEL-3B,2018-039A,2026-07-17T20:04:29.573760,14.26736832,.000121,98.6235,265.9266,119.6038,240.5263,0,U,43437,999,42849,.38405298E-4,.49E-6,0
FENGYUN 2H,2018-050A,2026-07-17T18:46:55.379424,1.00266917,.0002256,3.1082,78.7148,133.6408,84.0592,0,U,43491,999,2974,0,-.136E-5,0
METOP-C,2018-087A,2026-07-17T21:32:38.637888,14.21503253,.00021289,98.6628,257.9374,90.1177,270.0244,0,U,43689,999,39919,.33143668E-4,.29E-6,0
GEO-KOMPSAT-2A,2018-100A,2026-07-17T12:10:18.799392,1.00273401,.0002281,0.0319,166.1558,290.0894,149.9033,0,U,43823,999,2793,0,-.353E-5,0
METEOR-M2 2,2019-038A,2026-07-17T22:36:42.438240,14.24373724,.0000554,98.9162,186.6843,356.0810,4.0364,0,U,44387,999,36567,.69799385E-4,.115E-5,0
ARKTIKA-M 1,2021-016A,2026-07-14T09:46:38.558208,2.00611590,.7297332,63.2662,53.6722,270.0591,14.4994,0,U,47719,999,3933,0,-.301E-5,0
FENGYUN 3E,2021-062A,2026-07-17T22:12:21.645792,14.19906374,.0002107,98.7498,201.9916,34.2538,325.8774,0,U,49008,999,26094,.14480336E-4,-.13E-6,0
GOES 18,2022-021A,2026-07-17T14:20:03.326208,1.00271942,.00004387,0.0143,128.8784,42.9250,201.6142,0,U,51850,999,689,0,.87E-6,0
NOAA 21 (JPSS-2),2022-150A,2026-07-17T21:45:27.273024,14.19541282,.00028731,98.7059,137.1799,99.9294,260.2206,0,U,54234,999,19090,.20320732E-4,-.1E-7,0
METEOSAT-12 (MTG-I1),2022-170C,2026-07-17T20:05:49.410816,1.00268483,.00039224,0.7280,20.2075,81.4619,135.0801,0,U,54743,999,1328,0,-.18E-6,0
TIANMU-1 03,2023-039A,2026-07-17T22:54:40.881312,15.48092593,.00023461,97.5246,14.1496,17.8851,342.2481,0,U,55973,999,18559,.17322504E-3,.8985E-4,0
TIANMU-1 04,2023-039B,2026-07-17T22:22:00.323616,15.48721116,.00027448,97.5187,13.2821,2.1400,357.9861,0,U,55974,999,18560,.17927846E-3,.951E-4,0
TIANMU-1 05,2023-039C,2026-07-17T22:29:09.365280,15.48017508,.00027202,97.5231,13.7345,38.8159,321.3286,0,U,55975,999,18557,.17198349E-3,.8897E-4,0
TIANMU-1 06,2023-039D,2026-07-17T22:29:44.003040,15.48617281,.00027859,97.5239,14.4019,29.1218,331.0187,0,U,55976,999,18560,.1751267E-3,.9254E-4,0
FENGYUN 3G,2023-055A,2026-07-17T23:38:32.595072,15.53870673,.00069588,49.9911,187.1724,69.0170,291.1541,0,U,56232,999,18479,.23490799E-3,.14994E-3,0
METEOR-M2 3,2023-091A,2026-07-17T22:38:46.106880,14.24049075,.00051334,98.6066,253.2898,84.1448,276.0316,0,U,57166,999,15889,.13627504E-4,-.12E-6,0
TIANMU-1 07,2023-101A,2026-07-17T23:17:00.121056,15.30134041,.00035645,97.2573,248.9353,58.7393,301.4197,0,U,57399,999,16635,.11369705E-3,.3241E-4,0
TIANMU-1 08,2023-101B,2026-07-17T22:28:50.928384,15.30137309,.00043513,97.2562,248.6687,39.1558,320.9997,0,U,57400,999,16634,.11275517E-3,.3214E-4,0
TIANMU-1 09,2023-101C,2026-07-17T23:38:05.270208,15.30179645,.00041692,97.2520,248.1159,58.3863,301.7784,0,U,57401,999,16635,.11988479E-3,.3427E-4,0
TIANMU-1 10,2023-101D,2026-07-17T22:52:17.211072,15.30152986,.00054176,97.2599,249.1668,46.6831,313.4861,0,U,57402,999,16634,.11956314E-3,.3415E-4,0
FENGYUN 3F,2023-111A,2026-07-17T23:29:36.148704,14.19943680,.00012205,98.6823,268.4118,75.7138,284.4174,0,U,57490,999,15323,.20471084E-4,0,0
ARKTIKA-M 2,2023-198A,2026-07-15T04:12:00.091584,2.00608092,.69107365,63.2178,151.2342,267.3397,18.7345,0,U,58584,999,1888,0,.129E-5,0
TIANMU-1 11,2023-205A,2026-07-17T23:32:11.331744,15.27280024,.0006908,97.3441,220.0593,249.4532,110.5967,0,U,58645,999,14222,.11166798E-3,.2912E-4,0
TIANMU-1 12,2023-205B,2026-07-17T22:52:53.231232,15.27111935,.00060487,97.3430,219.7784,222.4646,137.6126,0,U,58646,999,14220,.11296856E-3,.2931E-4,0
TIANMU-1 13,2023-205C,2026-07-17T23:41:03.732000,15.27104996,.00061209,97.3458,220.0922,201.1080,158.9908,0,U,58647,999,14220,.11666349E-3,.3029E-4,0
TIANMU-1 14,2023-205D,2026-07-17T21:44:07.173312,15.27148317,.00067032,97.3394,219.1700,209.0124,151.0743,0,U,58648,999,14219,.11441799E-3,.2974E-4,0
TIANMU-1 19,2023-208A,2026-07-17T22:10:56.669664,15.32000728,.00048735,97.4530,315.3944,188.2495,171.8668,0,U,58660,999,14203,.14939513E-3,.4537E-4,0
