FENGYUN 3D              
1 43010U 17072A   26198.94477689 -.00000382  00000+0 -15843-3 0  9993
2 43010  99.0148 173.9262 0001403   8.5080 351.6119 14.19743526449353
NOAA 20 (JPSS-1)        
1 43013U 17073A   26198.87431143  .00000023  00000+0  32041-4 0  9994
2 43013  98.7772 138.0652 0001489 121.5711 238.5610 14.19516763448822
GOES 17                 
1 43226U 18022A   26198.82046775 -.00000192  00000+0  00000+0 0  9996
2 43226   1.0139  85.2201 0000596  70.6215 345.6576  1.00270854 30738
SENTINEL-3B             
1 43437U 18039A   26198.83645340  .00000049  00000+0  38405-4 0  9997
2 43437  98.6235 265.9266 0001210 119.6038 240.5263 14.26736832428495
FENGYUN 2H              
1 43491U 18050A   26198.78258541 -.00000136  00000+0  00000+0 0  9990
2 43491   3.1082  78.7148 0002256 133.6408  84.0592  1.00266917 29744
METOP-C                 
1 43689U 18087A   26198.89766942  .00000029  00000+0  33144-4 0  9990
2 43689  98.6628 257.9374 0002128  90.1177 270.0244 14.21503253399192
GEO-KOMPSAT-2A          
1 43823U 18100A   26198.50716203 -.00000353  00000+0  00000+0 0  9990
2 43823   0.0319 166.1558 0002281 290.0894 149.9033  1.00273401 27930
METEOR-M2 2             
1 44387U 19038A   26198.94215785  .00000115  00000+0  69799-4 0  9994
2 44387  98.9162 186.6843 0000554 356.0810   4.0364 14.24373724365677
ARKTIKA-M 1             
1 47719U 21016A   26195.40739072 -.00000301  00000+0  00000+0 0  9996
2 47719  63.2662  53.6722 7297332 270.0591  14.4994  2.00611590 39330
FENGYUN 3E              
1 49008U 21062A   26198.92525053 -.00000013  00000+0  14480-4 0  9994
2 49008  98.7498 201.9916 0002107  34.2538 325.8774 14.19906374260942
GOES 18                 
1 51850U 22021A   26198.59726072  .00000087  00000+0  00000+0 0  9993
2 51850   0.0143 128.8784 0000438  42.9250 201.6142  1.00271942  6899
NOAA 21 (JPSS-2)        
1 54234U 22150A   26198.90656566 -.00000001  00000+0  20321-4 0  9990
2 54234  98.7059 137.1799 0002873  99.9294 260.2206 14.19541282190901
METEOSAT-12 (MTG-I1)    
1 54743U 22170C   26198.83737744 -.00000018  00000+0  00000+0 0  9992
2 54743   0.7280  20.2075 0003922  81.4619 135.0801  1.00268483 13287
TIANMU-1 03             
1 55973U 23039A   26198.95463983  .00008985  00000+0  17323-3 0  9997
2 55973  97.5246  14.1496 0002346  17.8851 342.2481 15.48092593185592
TIANMU-1 04             
1 55974U 23039B   26198.93194819  .00009510  00000+0  17928-3 0  9991
2 55974  97.5187  13.2821 0002744   2.1400 357.9861 15.48721116185605
TIANMU-1 05             
1 55975U 23039C   26198.93691395  .00008897  00000+0  17198-3 0  9999
2 55975  97.5231  13.7345 0002720  38.8159 321.3286 15.48017508185578
TIANMU-1 06             
1 55976U 23039D   26198.93731485  .00009254  00000+0  17513-3 0  9994
2 55976  97.5239  14.4019 0002785  29.1218 331.0187 15.48617281185609
FENGYUN 3G              
1 56232U 23055A   26198.98509948  .00014994  00000+0  23491-3 0  9999
2 56232  49.9911 187.1724 0006958  69.0170 291.1541 15.53870673184791
METEOR-M2 3             
1 57166U 23091A   26198.94358920 -.00000012  00000+0  13628-4 0  9993
2 57166  98.6066 253.2898 0005133  84.1448 276.0316 14.24049075158892
TIANMU-1 07             
1 57399U 23101A   26198.97014029  .00003241  00000+0  11370-3 0  9992
2 57399  97.2573 248.9353 0003564  58.7393 301.4197 15.30134041166353
TIANMU-1 08             
1 57400U 23101B   26198.93670056  .00003214  00000+0  11276-3 0  9994
2 57400  97.2562 248.6687 0004351  39.1558 320.9997 15.30137309166345
TIANMU-1 09             
1 57401U 23101C   26198.98478322  .00003427  00000+0  11988-3 0  9998
2 57401  97.2520 248.1159 0004169  58.3863 301.7784 15.30179645166359
TIANMU-1 10             
1 57402U 23101D   26198.95297698  .00003415  00000+0  11956-3 0  9993
2 57402  97.2599 249.1668 0005417  46.6831 313.4861 15.30152986166348
FENGYUN 3F              
1 57490U 23111A   26198.97889061  .00000000  00000+0  20471-4 0  9994
2 57490  98.6823 268.4118 0001220  75.7138 284.4174 14.19943680153238
ARKTIKA-M 2             
1 58584U 23198A   26196.17500106  .00000129  00000+0  00000+0 0  9997
2 58584  63.2178 151.2342 6910736 267.3397  18.7345  2.00608092 18886
TIANMU-1 11             
1 58645U 23205A   26198.98068671  .00002912  00000+0  11167-3 0  9993
2 58645  97.3441 220.0593 0006908 249.4532 110.5967 15.27280024142222
TIANMU-1 12             
1 58646U 23205B   26198.95339388  .00002931  00000+0  11297-3 0  9992
2 58646  97.3430 219.7784 0006048 222.4646 137.6126 15.27111935142209
TIANMU-1 13             
1 58647U 23205C   26198.98684875  .00003029  00000+0  11666-3 0  9999
2 58647  97.3458 220.0922 0006120 201.1080 158.9908 15.27104996142209
TIANMU-1 14             
1 58648U 23205D   26198.90563858  .00002974  00000+0  11442-3 0  9999
2 58648  97.3394 219.1700 0006703 209.0124 151.0743 15.27148317142199
TIANMU-1 19             
1 58660U 23208A   26198.92426701  .00004537  00000+0  14940-3 0  9996
2 58660  97.4530 315.3944 0004873 188.2495 171.8668 15.32000728142038
